{
  "type": "FeatureCollection",
  "features": [
    {
      "type": "Feature",
      "properties": {
        "norad_id": 25590,
        "name": "COSMOS 2361",
        "group": "musson",
        "lat": -35.447611043557316,
        "lon": -31.052659434253066,
        "alt_km": 997.3557874552871,
        "timestamp": "2025-12-26T08:37:54.850079+00:00",
        "meta_object_name": "COSMOS 2361",
        "meta_object_id": "1998-076A",
        "meta_epoch": "2025-12-26T00:22:01.526880",
        "meta_mean_motion": 13.73218941,
        "meta_eccentricity": 0.0030355,
        "meta_inclination": 82.9346,
        "meta_ra_of_asc_node": 334.2672,
        "meta_arg_of_pericenter": 227.1925,
        "meta_mean_anomaly": 195.3497,
        "meta_ephemeris_type": 0,
        "meta_classification_type": "U",
        "meta_norad_cat_id": 25590,
        "meta_element_set_no": 999,
        "meta_rev_at_epoch": 35293,
        "meta_bstar": 5.6917e-05,
        "meta_mean_motion_dot": 6.8e-07,
        "meta_mean_motion_ddot": 0,
        "tle_line1": "1 25590U 98076A   25360.01529545  .00000068  00000+0  56917-4 0  9993",
        "tle_line2": "2 25590  82.9346 334.2672 0030355 227.1925 195.3497 13.73218941352935"
      },
      "geometry": {
        "type": "Point",
        "coordinates": [
          -31.052659434253066,
          -35.447611043557316
        ]
      }
    },
    {
      "type": "Feature",
      "properties": {
        "norad_id": 26818,
        "name": "COSMOS 2378",
        "group": "musson",
        "lat": 78.95122742649907,
        "lon": 29.1050837859012,
        "alt_km": 975.307975744875,
        "timestamp": "2025-12-26T08:37:54.850100+00:00",
        "meta_object_name": "COSMOS 2378",
        "meta_object_id": "2001-023A",
        "meta_epoch": "2025-12-26T01:33:12.760128",
        "meta_mean_motion": 13.74143053,
        "meta_eccentricity": 0.0033248,
        "meta_inclination": 82.9272,
        "meta_ra_of_asc_node": 349.8438,
        "meta_arg_of_pericenter": 167.5875,
        "meta_mean_anomaly": 256.1209,
        "meta_ephemeris_type": 0,
        "meta_classification_type": "U",
        "meta_norad_cat_id": 26818,
        "meta_element_set_no": 999,
        "meta_rev_at_epoch": 23106,
        "meta_bstar": 4.0775e-05,
        "meta_mean_motion_dot": 5.4e-07,
        "meta_mean_motion_ddot": 0,
        "tle_line1": "1 26818U 01023A   25360.06473102  .00000054  00000+0  40775-4 0  9995",
        "tle_line2": "2 26818  82.9272 349.8438 0033248 167.5875 256.1209 13.74143053231063"
      },
      "geometry": {
        "type": "Point",
        "coordinates": [
          29.1050837859012,
          78.95122742649907
        ]
      }
    },
    {
      "type": "Feature",
      "properties": {
        "norad_id": 27436,
        "name": "COSMOS 2389",
        "group": "musson",
        "lat": -21.93809682085882,
        "lon": -65.95347997342418,
        "alt_km": 962.0565475961539,
        "timestamp": "2025-12-26T08:37:54.850113+00:00",
        "meta_object_name": "COSMOS 2389",
        "meta_object_id": "2002-026A",
        "meta_epoch": "2025-12-25T22:34:39.670752",
        "meta_mean_motion": 13.75156034,
        "meta_eccentricity": 0.0047036,
        "meta_inclination": 82.9514,
        "meta_ra_of_asc_node": 297.2128,
        "meta_arg_of_pericenter": 24.6878,
        "meta_mean_anomaly": 40.9448,
        "meta_ephemeris_type": 0,
        "meta_classification_type": "U",
        "meta_norad_cat_id": 27436,
        "meta_element_set_no": 999,
        "meta_rev_at_epoch": 18330,
        "meta_bstar": 6.172e-05,
        "meta_mean_motion_dot": 7.5e-07,
        "meta_mean_motion_ddot": 0,
        "tle_line1": "1 27436U 02026A   25359.94073693  .00000075  00000+0  61720-4 0  9998",
        "tle_line2": "2 27436  82.9514 297.2128 0047036  24.6878  40.9448 13.75156034183308"
      },
      "geometry": {
        "type": "Point",
        "coordinates": [
          -65.95347997342418,
          -21.93809682085882
        ]
      }
    },
    {
      "type": "Feature",
      "properties": {
        "norad_id": 27818,
        "name": "COSMOS 2398",
        "group": "musson",
        "lat": 23.8692952840282,
        "lon": 79.52241422439374,
        "alt_km": 986.2723793543664,
        "timestamp": "2025-12-26T08:37:54.850124+00:00",
        "meta_object_name": "COSMOS 2398",
        "meta_object_id": "2003-023A",
        "meta_epoch": "2025-12-26T03:10:15.789216",
        "meta_mean_motion": 13.72387194,
        "meta_eccentricity": 0.0032681,
        "meta_inclination": 82.9482,
        "meta_ra_of_asc_node": 262.8298,
        "meta_arg_of_pericenter": 76.134,
        "meta_mean_anomaly": 35.8048,
        "meta_ephemeris_type": 0,
        "meta_classification_type": "U",
        "meta_norad_cat_id": 27818,
        "meta_element_set_no": 999,
        "meta_rev_at_epoch": 13000,
        "meta_bstar": 6.5421e-05,
        "meta_mean_motion_dot": 7.5e-07,
        "meta_mean_motion_ddot": 0,
        "tle_line1": "1 27818U 03023A   25360.13212719  .00000075  00000+0  65421-4 0  9999",
        "tle_line2": "2 27818  82.9482 262.8298 0032681  76.1340  35.8048 13.72387194130006"
      },
      "geometry": {
        "type": "Point",
        "coordinates": [
          79.52241422439374,
          23.8692952840282
        ]
      }
    },
    {
      "type": "Feature",
      "properties": {
        "norad_id": 28380,
        "name": "COSMOS 2407",
        "group": "musson",
        "lat": -3.7264380465729947,
        "lon": 23.269337702073305,
        "alt_km": 1008.6895362333744,
        "timestamp": "2025-12-26T08:37:54.850135+00:00",
        "meta_object_name": "COSMOS 2407",
        "meta_object_id": "2004-028A",
        "meta_epoch": "2025-12-26T01:31:13.832256",
        "meta_mean_motion": 13.763151,
        "meta_eccentricity": 0.0039683,
        "meta_inclination": 82.9593,
        "meta_ra_of_asc_node": 203.0276,
        "meta_arg_of_pericenter": 18.3923,
        "meta_mean_anomaly": 137.8378,
        "meta_ephemeris_type": 0,
        "meta_classification_type": "U",
        "meta_norad_cat_id": 28380,
        "meta_element_set_no": 999,
        "meta_rev_at_epoch": 7606,
        "meta_bstar": 3.6024e-05,
        "meta_mean_motion_dot": 5.1e-07,
        "meta_mean_motion_ddot": 0,
        "tle_line1": "1 28380U 04028A   25360.06335454  .00000051  00000+0  36024-4 0  9995",
        "tle_line2": "2 28380  82.9593 203.0276 0039683  18.3923 137.8378 13.76315100 76067"
      },
      "geometry": {
        "type": "Point",
        "coordinates": [
          23.269337702073305,
          -3.7264380465729947
        ]
      }
    },
    {
      "type": "Feature",
      "properties": {
        "norad_id": 28521,
        "name": "COSMOS 2414",
        "group": "musson",
        "lat": -64.72822478956799,
        "lon": 159.16176176602036,
        "alt_km": 972.7991376965128,
        "timestamp": "2025-12-26T08:37:54.850146+00:00",
        "meta_object_name": "COSMOS 2414",
        "meta_object_id": "2005-002A",
        "meta_epoch": "2025-12-26T00:17:54.606048",
        "meta_mean_motion": 13.87904624,
        "meta_eccentricity": 0.004143,
        "meta_inclination": 82.9488,
        "meta_ra_of_asc_node": 174.6231,
        "meta_arg_of_pericenter": 102.9062,
        "meta_mean_anomaly": 257.6734,
        "meta_ephemeris_type": 0,
        "meta_classification_type": "U",
        "meta_norad_cat_id": 28521,
        "meta_element_set_no": 999,
        "meta_rev_at_epoch": 5979,
        "meta_bstar": 4.6653e-05,
        "meta_mean_motion_dot": 7.2e-07,
        "meta_mean_motion_ddot": 0,
        "tle_line1": "1 28521U 05002A   25360.01243757  .00000072  00000+0  46653-4 0  9996",
        "tle_line2": "2 28521  82.9488 174.6231 0041430 102.9062 257.6734 13.87904624 59793"
      },
      "geometry": {
        "type": "Point",
        "coordinates": [
          159.16176176602036,
          -64.72822478956799
        ]
      }
    },
    {
      "type": "Feature",
      "properties": {
        "norad_id": 32052,
        "name": "COSMOS 2429",
        "group": "musson",
        "lat": 15.69636833783417,
        "lon": 151.28401598564722,
        "alt_km": 1008.9566529143422,
        "timestamp": "2025-12-26T08:37:54.850157+00:00",
        "meta_object_name": "COSMOS 2429",
        "meta_object_id": "2007-038A",
        "meta_epoch": "2025-12-26T00:51:08.061408",
        "meta_mean_motion": 13.75150636,
        "meta_eccentricity": 0.0038445,
        "meta_inclination": 82.9809,
        "meta_ra_of_asc_node": 333.5069,
        "meta_arg_of_pericenter": 1.214,
        "meta_mean_anomaly": 358.9103,
        "meta_ephemeris_type": 0,
        "meta_classification_type": "U",
        "meta_norad_cat_id": 32052,
        "meta_element_set_no": 999,
        "meta_rev_at_epoch": 91785,
        "meta_bstar": 4.6145e-05,
        "meta_mean_motion_dot": 6e-07,
        "meta_mean_motion_ddot": 0,
        "tle_line1": "1 32052U 07038A   25360.03550997  .00000060  00000+0  46145-4 0  9993",
        "tle_line2": "2 32052  82.9809 333.5069 0038445   1.2140 358.9103 13.75150636917857"
      },
      "geometry": {
        "type": "Point",
        "coordinates": [
          151.28401598564722,
          15.69636833783417
        ]
      }
    },
    {
      "type": "Feature",
      "properties": {
        "norad_id": 35635,
        "name": "COSMOS 2454",
        "group": "musson",
        "lat": 80.76999092738247,
        "lon": -152.13905912048443,
        "alt_km": 911.5421279987831,
        "timestamp": "2025-12-26T08:37:54.850167+00:00",
        "meta_object_name": "COSMOS 2454",
        "meta_object_id": "2009-039A",
        "meta_epoch": "2025-12-26T00:09:39.039840",
        "meta_mean_motion": 13.89930294,
        "meta_eccentricity": 0.0019949,
        "meta_inclination": 82.9559,
        "meta_ra_of_asc_node": 158.5879,
        "meta_arg_of_pericenter": 37.9318,
        "meta_mean_anomaly": 80.8204,
        "meta_ephemeris_type": 0,
        "meta_classification_type": "U",
        "meta_norad_cat_id": 35635,
        "meta_element_set_no": 999,
        "meta_rev_at_epoch": 83334,
        "meta_bstar": 5.4956e-05,
        "meta_mean_motion_dot": 8.4e-07,
        "meta_mean_motion_ddot": 0,
        "tle_line1": "1 35635U 09039A   25360.00670185  .00000084  00000+0  54956-4 0  9990",
        "tle_line2": "2 35635  82.9559 158.5879 0019949  37.9318  80.8204 13.89930294833349"
      },
      "geometry": {
        "type": "Point",
        "coordinates": [
          -152.13905912048443,
          80.76999092738247
        ]
      }
    },
    {
      "type": "Feature",
      "properties": {
        "norad_id": 36519,
        "name": "COSMOS 2463",
        "group": "musson",
        "lat": -50.203742735753835,
        "lon": 8.173348803066611,
        "alt_km": 987.8191850997318,
        "timestamp": "2025-12-26T08:37:54.850177+00:00",
        "meta_object_name": "COSMOS 2463",
        "meta_object_id": "2010-017A",
        "meta_epoch": "2025-12-26T03:57:12.978720",
        "meta_mean_motion": 13.71650325,
        "meta_eccentricity": 0.0034829,
        "meta_inclination": 82.9603,
        "meta_ra_of_asc_node": 16.8464,
        "meta_arg_of_pericenter": 249.4013,
        "meta_mean_anomaly": 177.5936,
        "meta_ephemeris_type": 0,
        "meta_classification_type": "U",
        "meta_norad_cat_id": 36519,
        "meta_element_set_no": 999,
        "meta_rev_at_epoch": 78421,
        "meta_bstar": 3.5999e-05,
        "meta_mean_motion_dot": 4.7e-07,
        "meta_mean_motion_ddot": 0,
        "tle_line1": "1 36519U 10017A   25360.16473355  .00000047  00000+0  35999-4 0  9992",
        "tle_line2": "2 36519  82.9603  16.8464 0034829 249.4013 177.5936 13.71650325784215"
      },
      "geometry": {
        "type": "Point",
        "coordinates": [
          8.173348803066611,
          -50.203742735753835
        ]
      }
    }
  ]
}